O3B FM10                
1 40348U 14083A   26064.01631799 -.00000027  00000+0  00000+0 0  9997
2 40348   0.0433 347.4567 0002685 354.8390  17.6889  5.00115221204686
O3B FM11                
1 40349U 14083B   26064.22893101 -.00000027  00000+0  00000+0 0  9998
2 40349   0.0567   0.4178 0003129 332.5586  27.0013  5.00115587204705
O3B FM12                
1 40350U 14083C   26062.45701119 -.00000028  00000+0  00000+0 0  9991
2 40350   0.0560 359.7796 0002643 337.6957  22.5061  5.00115945204637
O3B FM9                 
1 40351U 14083D   26064.08296451 -.00000027  00000+0  00000+0 0  9990
2 40351   0.0578   0.7720 0002734 341.9295  17.2831  5.00115917204861
ASTRA 2G                
1 40364U 14089A   26064.20114200  .00000000  00000+0  00000+0 0  9995
2 40364   0.0236   9.5027 0004437  20.3595 233.6781  1.00271341 40929
SES-9                   
1 41380U 16013A   26063.33003138 -.00000357  00000+0  00000+0 0  9999
2 41380   0.0427 307.7822 0001514  86.5529 354.8377  1.00271983 36384
SES-10                  
1 42432U 17017A   26063.34003264 -.00000284  00000+0  00000+0 0  9993
2 42432   0.0212  73.6872 0002699 276.1470 227.7463  1.00269378 32707
SES-15                  
1 42709U 17026A   26064.01780892  .00000050  00000+0  00000+0 0  9994
2 42709   0.0426 307.9199 0000713  39.5952  52.4724  1.00271060  6386
SES-11 (ECHOSTAR 105)   
1 42967U 17063A   26064.20584368 -.00000098  00000+0  00000+0 0  9995
2 42967   0.0386  71.4662 0002894 270.8534 149.7752  1.00272288 30687
SES-14                  
1 43175U 18012B   26063.34350089 -.00000290  00000+0  00000+0 0  9991
2 43175   0.0143  70.4742 0000973 272.4657 255.3040  1.00271323  5975
O3B FM15                
1 43231U 18024A   26062.95038387 -.00000028  00000+0  00000+0 0  9996
2 43231   0.0484   0.7666 0002702 337.6890  21.5262  5.00115661145769
O3B FM16                
1 43232U 18024B   26064.20210419 -.00000027  00000+0  00000+0 0  9994
2 43232   0.0451   2.7052 0002809 340.1929  17.0864  5.00115805145741
O3B FM14                
1 43233U 18024C   26064.24285575 -.00000027  00000+0  00000+0 0  9994
2 43233   0.0434   1.6419 0002846 343.1826  15.1609  5.00115697145743
O3B FM13                
1 43234U 18024D   26062.10991137 -.00000028  00000+0  00000+0 0  9997
2 43234   0.0485 331.6373 0004295 331.6147  56.6997  5.00115687145742
SES-12                  
1 43488U 18049A   26064.17058906  .00000000  00000+0  00000+0 0  9991
2 43488   0.0166 121.0370 0001794 184.3704  13.9195  1.00264640 28375
O3B FM20                
1 44112U 19020A   26061.87018883 -.00000029  00000+0  00000+0 0  9992
2 44112   0.0516 359.6601 0002817 330.2863  30.0302  5.00115471126257
O3B FM19                
1 44113U 19020B   26058.89895873 -.00000027  00000+0  00000+0 0  9991
2 44113   0.0602 347.5601 0004795 353.9797  18.4356  5.00116325125971
